     2.100          NAVIGATION                              RINEX VERSION / TYPE
fic2rin                                 10/23/2008 03:06:43 PGM / RUN BY / DATE
                                                            END OF HEADER
12 08 10 22  1 59 44.0 -.345154665411D-03  .204636307899D-11  .000000000000D+00
     .190000000000D+02 -.762812500000D+02  .428910722996D-08 -.166016556801D+01
    -.395625829697D-05  .297955295537D-02  .786967575550D-05  .515380656242D+04
     .266384000000D+06 -.614672899246D-07  .139758340444D+01  .316649675369D-07
     .964712646417D+00  .229562500000D+03 -.845149909806D+00 -.802426281418D-08
     .189293599124D-10  .100000000000D+01  .150200000000D+04  .000000000000D+00
     .240000000000D+01  .000000000000D+00 -.116415321827D-07  .190000000000D+02
     .259206000000D+06  .400000000000D+01
 2 08 10 22  2  0  0.0  .178502872586D-03 -.261479726760D-11  .000000000000D+00
     .600000000000D+02  .235000000000D+02  .532915055194D-08 -.132684045314D+00
     .121630728245D-05  .878644059412D-02  .654719769955D-05  .515378407288D+04
     .266400000000D+06  .614672899246D-07 -.280529221351D+01 -.102445483208D-06
     .942832731602D+00  .244875000000D+03  .265565986433D+01 -.851499754097D-08
     .457161899771D-10  .100000000000D+01  .150200000000D+04  .000000000000D+00
     .240000000000D+01  .000000000000D+00 -.172294676304D-07  .600000000000D+02
     .259206000000D+06  .400000000000D+01
 3 08 10 22  2  0  0.0  .300226267427D-03  .534328137292D-11  .000000000000D+00
     .112000000000D+03 -.803125000000D+01  .539058168222D-08 -.439602047876D+00
    -.298023223877D-06  .113674781751D-01  .965408980846D-05  .515370539474D+04
     .266400000000D+06  .223517417908D-07  .233295813725D+01  .193715095520D-06
     .926047249059D+00  .176062500000D+03  .865240184270D+00 -.856892835883D-08
     .338228374284D-09  .100000000000D+01  .150200000000D+04  .000000000000D+00
     .340000000000D+01  .000000000000D+00 -.419095158577D-08  .112000000000D+03
     .259206000000D+06  .400000000000D+01
 4 08 10 22  2  0  0.0 -.207917299122D-03 -.117097442853D-10  .000000000000D+00
     .900000000000D+02  .265000000000D+02  .525486174323D-08  .272957559236D+01
     .138767063618D-05  .840844842605D-02  .686198472977D-05  .515360025024D+04
     .266400000000D+06 -.931322574615D-07 -.278664454890D+01 -.987201929092D-07
     .942095789545D+00  .238562500000D+03  .415969871729D+00 -.822784272268D-08
     .357157734196D-10  .100000000000D+01  .150200000000D+04  .000000000000D+00
     .340000000000D+01  .000000000000D+00 -.605359673500D-08  .900000000000D+02
     .259206000000D+06  .400000000000D+01
 5 08 10 22  2  0  0.0 -.313351396471D-03 -.529780663783D-10  .000000000000D+00
     .150000000000D+02 -.823437500000D+02  .470769609444D-08  .229993235492D+01
    -.441633164883D-05  .936765398365D-02  .694766640663D-05  .515368216324D+04
     .266400000000D+06  .931322574615D-07  .130077345466D+01 -.108033418655D-06
     .943645073919D+00  .233937500000D+03  .128633304589D+01 -.812426697976D-08
    -.239295681911D-10  .100000000000D+01  .150200000000D+04  .000000000000D+00
     .685000000000D+01  .000000000000D+00 -.419095158577D-08  .271000000000D+03
     .259206000000D+06  .400000000000D+01
 6 08 10 22  2  0  0.0  .155736226588D-03 -.500222085975D-11  .000000000000D+00
     .940000000000D+02 -.696875000000D+01  .512092759290D-08  .214086260418D+01
    -.409781932831D-06  .563822954427D-02  .947341322899D-05  .515371389008D+04
     .266400000000D+06  .106170773506D-06  .239876877833D+01 -.745058059692D-08
     .933629095571D+00  .180781250000D+03 -.154726335405D+01 -.816641159239D-08
     .322870591713D-09  .100000000000D+01  .150200000000D+04  .000000000000D+00
     .340000000000D+01  .000000000000D+00 -.465661287308D-08  .940000000000D+02
     .259206000000D+06  .400000000000D+01
 7 08 10 22  2  0  0.0  .223354436457D-04  .795807864051D-12  .000000000000D+00
     .790000000000D+02 -.226875000000D+02  .459519140817D-08 -.180864003801D+01
    -.121630728245D-05  .228259421419D-02  .376999378204D-05  .515369009972D+04
     .266400000000D+06 -.596046447754D-07  .347133004672D+00  .279396772385D-07
     .964604492883D+00  .310000000000D+03  .279241535110D+01 -.833856162028D-08
     .639312344211D-10  .100000000000D+01  .150200000000D+04  .000000000000D+00
     .240000000000D+01  .000000000000D+00 -.107102096081D-07  .790000000000D+02
     .259206000000D+06  .400000000000D+01
 8 08 10 22  2  0  0.0 -.175007618964D-03 -.159161572810D-11  .000000000000D+00
     .550000000000D+02 -.238750000000D+02  .409659921123D-08 -.254414603716D+01
    -.126101076603D-05  .106107010506D-01  .407360494137D-05  .515371403694D+04
     .266400000000D+06 -.210478901863D-06  .402964750905D+00  .707805156708D-07
     .985760807454D+00  .315937500000D+03  .292670547127D+01 -.800319050787D-08
     .189293599124D-10  .100000000000D+01  .150200000000D+04  .000000000000D+00
     .340000000000D+01  .000000000000D+00 -.372529029846D-08  .550000000000D+02
     .259206000000D+06  .400000000000D+01
 9 08 10 22  2  0  0.0  .210129655898D-04  .193267624127D-11  .000000000000D+00
     .220000000000D+02 -.173750000000D+02  .421553273672D-08 -.287387162600D+01
    -.774860382080D-06  .201019782107D-01  .378303229809D-05  .515366545677D+04
     .266400000000D+06  .325962901115D-06  .311551785337D+00  .260770320892D-07
     .973618802445D+00  .310750000000D+03  .144749873692D+01 -.784318384295D-08
     .975040614355D-10  .100000000000D+01  .150200000000D+04  .000000000000D+00
     .240000000000D+01  .000000000000D+00 -.558793544769D-08  .220000000000D+02
     .259206000000D+06  .400000000000D+01
10 08 10 22  2  0  0.0 -.632740557194D-05 -.454747350886D-12  .000000000000D+00
     .600000000000D+02  .206875000000D+02  .462733560424D-08  .823843682705D+00
     .132247805595D-05  .810238718987D-02  .836700201035D-05  .515372205925D+04
     .266400000000D+06 -.782310962677D-07 -.172217070565D+01  .102445483208D-06
     .961263844840D+00  .217781250000D+03  .558885601200D+00 -.815676833357D-08
    -.427160650099D-09  .100000000000D+01  .150200000000D+04  .000000000000D+00
     .340000000000D+01  .000000000000D+00 -.232830643654D-08  .600000000000D+02
     .259206000000D+06  .400000000000D+01
11 08 10 22  2  0  0.0  .173337757587D-04 -.795807864051D-12  .000000000000D+00
     .410000000000D+02  .229375000000D+02  .642062458764D-08 -.206236679564D+01
     .925734639168D-06  .871640804689D-02  .632554292679D-05  .515364607048D+04
     .266400000000D+06  .558793544769D-07 -.299435685242D+01 -.113621354103D-06
     .890795067796D+00  .218281250000D+03  .630752136490D+00 -.883143929347D-08
     .206080012631D-09  .100000000000D+01  .150200000000D+04  .000000000000D+00
     .240000000000D+01  .000000000000D+00 -.121071934700D-07  .410000000000D+02
     .259206000000D+06  .400000000000D+01
13 08 10 22  2  0  0.0  .274786725640D-03  .102318153949D-11  .000000000000D+00
     .670000000000D+02  .695937500000D+02  .371979780165D-08  .503835443820D+00
     .350922346115D-05  .361504848115D-02  .737234950066D-05  .515356604385D+04
     .266400000000D+06 -.316649675369D-07 -.648455990726D+00 -.111758708954D-07
     .995499707656D+00  .254656250000D+03  .155359149440D+01 -.785961309872D-08
     .628597612185D-10  .100000000000D+01  .150200000000D+04  .000000000000D+00
     .240000000000D+01  .000000000000D+00 -.111758708954D-07  .670000000000D+02
     .259206000000D+06  .400000000000D+01
14 08 10 22  2  0  0.0 -.204433687031D-03  .488853402203D-11  .000000000000D+00
     .590000000000D+02  .594375000000D+02  .395480759075D-08  .213087908652D+00
     .314041972160D-05  .433757167775D-02  .664032995701D-05  .515374620628D+04
     .266400000000D+06 -.186264514923D-08 -.666618863306D+00  .838190317154D-07
     .989138268368D+00  .268187500000D+03 -.215963478799D+01 -.793283043423D-08
    -.892894335490D-11  .100000000000D+01  .150200000000D+04  .000000000000D+00
     .340000000000D+01  .000000000000D+00 -.931322574615D-08  .590000000000D+02
     .259206000000D+06  .400000000000D+01
15 08 10 22  2  0  0.0 -.198007561266D-03 -.636646291241D-11  .000000000000D+00
     .103000000000D+03  .524375000000D+02  .453018870054D-08  .102728470578D+01
     .263936817646D-05  .106282008346D-02  .730715692043D-05  .515372078323D+04
     .266400000000D+06 -.204890966415D-07 -.712266029882D+00 -.223517417908D-07
     .957360794034D+00  .236687500000D+03 -.109813061286D+01 -.815069665209D-08
    -.357157734196D-10  .100000000000D+01  .150200000000D+04  .000000000000D+00
     .340000000000D+01  .000000000000D+00 -.977888703346D-08  .103000000000D+03
     .259206000000D+06  .400000000000D+01
16 08 10 22  2  0  0.0  .100052915514D-03 -.227373675443D-11  .000000000000D+00
     .410000000000D+02 -.906562500000D+02  .422517599554D-08  .204472149031D+01
    -.455416738987D-05  .473806879018D-02  .890530645847D-05  .515369813728D+04
     .266400000000D+06  .558793544769D-08  .141419795964D+01  .465661287308D-07
     .966305872461D+00  .209562500000D+03 -.385434252461D+00 -.791247244338D-08
    -.757174396496D-10  .100000000000D+01  .150200000000D+04  .000000000000D+00
     .240000000000D+01  .000000000000D+00 -.977888703346D-08  .410000000000D+02
     .259206000000D+06  .400000000000D+01
17 08 10 22  2  0  0.0  .396808609366D-04  .454747350886D-12  .000000000000D+00
     .600000000000D+01 -.112187500000D+02  .456911889357D-08  .920069303505D+00
    -.629574060440D-06  .387806445360D-02  .976026058197D-05  .515360327530D+04
     .266400000000D+06  .149011611938D-07  .245600038502D+01  .521540641785D-07
     .959721690729D+00  .191781250000D+03 -.279693096374D+01 -.796104589523D-08
     .270368404786D-09  .100000000000D+01  .150200000000D+04  .000000000000D+00
     .240000000000D+01  .000000000000D+00 -.102445483208D-07  .600000000000D+01
     .259206000000D+06  .400000000000D+01
